{"fetched_at":"2026-03-30T06:02:59Z","count":15439,"tles":[{"name":"STARLINK-5444","line1":"1 54768U 22175L   26087.89679076  .00000288  00000+0  36174-4 0  9994","line2":"2 54768  53.2173 303.2849 0001220  89.7635 270.3497 15.08839559183024","category":"Starlink"}]}